REAL                    
1 64875U 25154G   26068.72233414  .00022901  00000+0  82904-3 0  9994
2 64875  97.4133 137.2581 0001853 118.5876 241.5550 15.28408058 34830
STARLINK-36492          
1 67332U 26002AD  26068.42167933  .00024346  00000+0  89136-3 0  9996
2 67332  43.0032 327.1487 0000537   0.4165 359.6687 15.27577988 11193
